<?xml version="1.0" encoding="UTF-8"?>
<kml xmlns="http://www.opengis.net/kml/2.2">
  <Document>
    <name>Траектория ПОТОК</name>
    <description>Привязанная к местности траектория полета планера.</description>
    
    <Style id="trackStyle">
      <LineStyle>
        <color>ff0000ff</color> <!-- Красный цвет линии (формат AABBGGRR) -->
        <width>5</width>
      </LineStyle>
      <PolyStyle>
        <color>3f0000ff</color> <!-- Полупрозрачная "шторка" до земли -->
      </PolyStyle>
    </Style>

    <Placemark>
      <name>Старт</name>
      <Point>
        <coordinates>40.975836111111114,56.41149166666666,0</coordinates>
      </Point>
    </Placemark>

    <Placemark>
      <name>Посадка</name>
      <Point>
        <coordinates>40.98313888888889,56.412952777777775,0</coordinates>
      </Point>
    </Placemark>

    <Placemark>
      <name>Линия полета</name>
      <styleUrl>#trackStyle</styleUrl>
      <LineString>
        <extrude>1</extrude>
        <tessellate>1</tessellate>
        <altitudeMode>absolute</altitudeMode>
        <coordinates>
          40.975836,56.411492,0.0
          40.975836,56.411492,0.0
          40.975836,56.411492,0.0
          40.975836,56.411492,0.0
          40.975836,56.411492,0.0
          40.975836,56.411492,0.0
          40.975836,56.411492,5.7
          40.975836,56.411492,31.6
          40.975836,56.411492,81.0
          40.975836,56.411492,151.7
          40.975836,56.411492,250.4
          40.975836,56.411492,352.0
          40.975836,56.411492,432.0
          40.975836,56.411492,641.9
          40.975836,56.411492,665.2
          40.975836,56.411492,700.3
          40.975836,56.411492,743.5
          40.975836,56.411492,792.4
          40.975836,56.411492,837.0
          40.975836,56.411492,879.0
          40.975836,56.411492,920.8
          40.975836,56.411492,966.5
          40.975836,56.411492,1004.9
          40.975836,56.411492,1045.7
          40.975836,56.411492,1075.5
          40.975836,56.411492,1102.3
          40.975836,56.411492,1128.5
          40.975836,56.411492,1158.0
          40.975836,56.411492,1191.0
          40.975836,56.411492,1226.9
          40.975836,56.411492,1258.9
          40.975836,56.411492,1288.9
          40.975836,56.411492,1316.4
          40.975836,56.411492,1345.6
          40.975836,56.411492,1372.1
          40.975836,56.411492,1397.4
          40.975836,56.411492,1419.6
          40.975836,56.411492,1438.3
          40.975836,56.411492,1462.0
          40.975836,56.411492,1482.9
          40.975836,56.411492,1499.1
          40.975836,56.411492,1518.2
          40.975836,56.411492,1532.3
          40.975836,56.411492,1552.8
          40.975836,56.411492,1570.4
          40.975836,56.411492,1581.1
          40.975836,56.411492,1595.1
          40.975836,56.411492,1605.7
          40.975836,56.411492,1614.7
          40.975836,56.411492,1624.3
          40.975836,56.411492,1631.1
          40.975836,56.411492,1640.8
          40.975836,56.411492,1646.1
          40.975836,56.411492,1651.5
          40.975836,56.411492,1656.8
          40.975836,56.411492,1662.1
          40.975836,56.411492,1666.0
          40.975836,56.411492,1668.4
          40.975836,56.411492,1669.2
          40.975836,56.411492,1670.6
          40.975836,56.411492,1671.4
          40.975836,56.411492,1669.8
          40.975836,56.411492,1669.7
          40.975836,56.411492,1668.5
          40.975836,56.411492,1665.7
          40.975836,56.411492,1662.4
          40.975836,56.411492,1657.5
          40.975836,56.411492,1652.2
          40.975836,56.411492,1647.2
          40.975836,56.411492,1630.6
          40.975836,56.411492,1642.8
          40.975836,56.411492,1627.1
          40.975836,56.411492,1610.3
          40.975836,56.411492,1602.7
          40.975836,56.411492,1596.7
          40.975836,56.411492,1600.7
          40.975836,56.411492,1582.2
          40.975836,56.411492,1575.3
          40.975741,56.411460,1563.7
          40.975894,56.411379,1556.2
          40.975808,56.411470,1545.7
          40.975658,56.411433,1534.1
          40.975709,56.411344,1524.5
          40.975626,56.411384,1509.8
          40.975516,56.411391,1502.2
          40.975469,56.411335,1495.5
          40.975504,56.411273,1488.9
          40.975408,56.411310,1481.1
          40.975298,56.411300,1473.6
          40.975269,56.411241,1468.1
          40.975306,56.411152,1462.5
          40.975199,56.411167,1452.5
          40.975106,56.411134,1447.1
          40.975111,56.411074,1442.2
          40.975066,56.411013,1437.0
          40.974947,56.411012,1432.5
          40.974879,56.410964,1427.2
          40.974906,56.410906,1420.9
          40.974864,56.410850,1416.0
          40.974755,56.410837,1412.9
          40.974700,56.410784,1407.2
          40.974746,56.410724,1400.2
          40.974688,56.410668,1394.3
          40.974585,56.410649,1388.9
          40.974555,56.410590,1383.7
          40.974606,56.410537,1377.9
          40.974566,56.410480,1373.3
          40.974466,56.410456,1367.1
          40.974433,56.410398,1362.0
          40.974490,56.410336,1358.0
          40.974443,56.410282,1352.4
          40.974343,56.410256,1346.6
          40.974331,56.410196,1340.1
          40.974387,56.410144,1334.9
          40.974356,56.410086,1329.4
          40.974263,56.410054,1323.2
          40.974276,56.409994,1318.2
          40.974362,56.409944,1313.0
          40.974343,56.409884,1305.3
          40.974258,56.409846,1301.6
          40.974349,56.409789,1295.7
          40.974426,56.409745,1288.1
          40.974387,56.409689,1284.0
          40.974286,56.409666,1279.9
          40.974271,56.409606,1273.8
          40.974186,56.409562,1262.4
          40.974217,56.409499,1262.4
          40.974151,56.409451,1258.4
          40.974193,56.409394,1251.7
          40.974300,56.409381,1246.4
          40.974319,56.409321,1236.8
          40.974424,56.409297,1231.8
          40.974492,56.409247,1231.3
          40.974572,56.409203,1219.6
          40.974670,56.409235,1221.4
          40.974713,56.409292,1213.7
          40.974818,56.409309,1204.6
          40.974919,56.409286,1197.8
          40.975015,56.409314,1190.7
          40.975046,56.409372,1186.3
          40.975214,56.409353,1181.8
          40.975385,56.409360,1171.2
          40.975432,56.409415,1165.7
          40.975456,56.409474,1158.8
          40.975560,56.409457,1153.9
          40.975670,56.409457,1148.9
          40.975723,56.409510,1143.4
          40.975746,56.409569,1139.8
          40.975868,56.409554,1132.8
          40.975977,56.409559,1127.1
          40.976018,56.409615,1122.9
          40.976032,56.409675,1115.7
          40.976142,56.409676,1109.7
          40.976251,56.409681,1105.4
          40.976292,56.409737,1099.2
          40.976292,56.409807,1093.4
          40.976399,56.409816,1087.8
          40.976504,56.409832,1083.3
          40.976527,56.409892,1077.8
          40.976522,56.409952,1071.3
          40.976626,56.409970,1066.1
          40.976733,56.409980,1061.3
          40.976765,56.410038,1055.9
          40.976765,56.410103,1050.8
          40.976876,56.410123,1044.4
          40.976983,56.410135,1039.2
          40.977007,56.410194,1033.5
          40.976997,56.410254,1027.1
          40.977090,56.410285,1022.8
          40.977198,56.410298,1016.2
          40.977222,56.410357,1012.3
          40.977209,56.410426,1006.4
          40.977300,56.410459,1000.7
          40.977408,56.410472,995.3
          40.977422,56.410532,991.3
          40.977411,56.410591,983.1
          40.977495,56.410630,979.3
          40.977602,56.410643,972.3
          40.977625,56.410702,967.0
          40.977607,56.410771,961.2
          40.977689,56.410810,954.1
          40.977796,56.410820,948.9
          40.977809,56.410881,943.2
          40.977789,56.410940,938.1
          40.977863,56.410985,933.6
          40.977970,56.410994,927.6
          40.977975,56.411055,922.3
          40.977917,56.411116,915.4
          40.977978,56.411165,908.3
          40.978072,56.411195,902.1
          40.978056,56.411254,897.4
          40.978003,56.411307,892.3
          40.978050,56.411361,886.9
          40.978139,56.411395,882.2
          40.978109,56.411452,877.2
          40.978041,56.411510,872.7
          40.978088,56.411563,867.0
          40.978176,56.411599,862.6
          40.978094,56.411639,857.9
          40.978005,56.411673,852.9
          40.977992,56.411733,848.5
          40.978077,56.411771,844.2
          40.978187,56.411767,837.9
          40.978053,56.411858,834.0
          40.978105,56.411916,825.1
          40.978220,56.411923,820.6
          40.978147,56.411873,815.0
          40.978059,56.411907,811.4
          40.978105,56.411962,806.0
          40.978217,56.411946,802.4
          40.978210,56.411882,798.2
          40.978142,56.411831,794.0
          40.978197,56.411883,787.6
          40.978307,56.411873,784.3
          40.978279,56.411784,780.5
          40.978170,56.411786,773.9
          40.978238,56.411739,771.3
          40.978333,56.411700,765.8
          40.978316,56.411635,762.7
          40.978319,56.411575,756.7
          40.978381,56.411626,752.4
          40.978492,56.411623,749.4
          40.978525,56.411566,744.8
          40.978426,56.411539,741.2
          40.978449,56.411479,738.8
          40.978573,56.411495,732.0
          40.978659,56.411458,726.1
          40.978687,56.411400,724.8
          40.978796,56.411392,719.6
          40.978818,56.411452,715.9
          40.978921,56.411473,712.0
          40.978971,56.411418,708.3
          40.979073,56.411396,706.3
          40.979056,56.411465,699.1
          40.979144,56.411501,699.8
          40.979253,56.411494,689.1
          40.979282,56.411436,687.0
          40.979280,56.411376,680.7
          40.979326,56.411431,688.3
          40.979373,56.411486,670.1
          40.979480,56.411472,663.5
          40.979459,56.411402,660.2
          40.979354,56.411386,660.0
          40.979270,56.411424,652.2
          40.979239,56.411365,642.2
          40.979350,56.411359,640.4
          40.979408,56.411410,633.9
          40.979377,56.411467,627.4
          40.979504,56.411469,623.6
          40.979612,56.411477,617.2
          40.979647,56.411534,613.3
          40.979623,56.411593,608.3
          40.979733,56.411594,603.1
          40.979842,56.411602,597.4
          40.979872,56.411660,592.5
          40.979840,56.411717,587.9
          40.979945,56.411688,583.6
          40.980062,56.411696,578.4
          40.980100,56.411752,574.5
          40.980053,56.411807,569.8
          40.980097,56.411862,566.3
          40.980206,56.411864,560.4
          40.980277,56.411910,555.2
          40.980258,56.411968,552.5
          40.980495,56.411962,548.1
          40.980617,56.411938,537.5
          40.980698,56.411977,533.6
          40.980745,56.412031,529.9
          40.980785,56.411973,526.6
          40.980882,56.411945,522.1
          40.980974,56.411977,517.0
          40.980959,56.412036,512.8
          40.980928,56.411968,507.1
          40.981021,56.411935,503.3
          40.981109,56.411970,499.5
          40.981195,56.412007,495.1
          40.981173,56.411947,491.1
          40.981240,56.411897,486.9
          40.981347,56.411905,483.0
          40.981413,56.411965,479.6
          40.981446,56.411906,475.7
          40.981512,56.411856,470.9
          40.981620,56.411865,467.3
          40.981696,56.411909,463.2
          40.981773,56.411865,460.6
          40.981829,56.411812,457.1
          40.981937,56.411815,453.5
          40.982038,56.411857,449.2
          40.982011,56.411798,445.1
          40.982094,56.411758,441.8
          40.982193,56.411784,438.0
          40.982217,56.411846,435.5
          40.982324,56.411823,430.4
          40.982381,56.411769,427.7
          40.982495,56.411769,425.2
          40.982603,56.411760,420.5
          40.982501,56.411736,416.8
          40.982534,56.411678,414.9
          40.982642,56.411666,409.7
          40.982745,56.411683,407.6
          40.982657,56.411720,402.4
          40.982672,56.411660,401.9
          40.982762,56.411611,396.6
          40.982871,56.411610,395.5
          40.982834,56.411667,390.0
          40.982883,56.411612,385.6
          40.982911,56.411554,385.6
          40.983017,56.411569,376.9
          40.983103,56.411607,374.6
          40.983204,56.411581,371.0
          40.983222,56.411517,373.0
          40.983130,56.411478,360.8
          40.983182,56.411532,356.6
          40.983200,56.411592,355.0
          40.983093,56.411609,350.8
          40.983009,56.411648,346.6
          40.983119,56.411656,341.5
          40.983214,56.411701,337.8
          40.983127,56.411738,333.9
          40.983032,56.411708,325.0
          40.983143,56.411713,320.8
          40.983099,56.411769,321.2
          40.982993,56.411757,315.6
          40.982987,56.411696,310.4
          40.983095,56.411683,306.5
          40.982937,56.411644,302.7
          40.982937,56.411548,293.5
          40.983047,56.411540,287.6
          40.983063,56.411479,288.6
          40.982975,56.411442,277.9
          40.982891,56.411404,273.9
          40.982984,56.411372,269.1
          40.983070,56.411410,265.0
          40.983042,56.411478,261.7
          40.983077,56.411422,257.3
          40.983184,56.411411,253.4
          40.983254,56.411457,250.5
          40.983251,56.411517,245.5
          40.983340,56.411485,241.0
          40.983446,56.411471,236.6
          40.983516,56.411517,232.3
          40.983484,56.411579,229.0
          40.983532,56.411638,224.5
          40.983665,56.411660,220.4
          40.983704,56.411717,215.1
          40.983660,56.411771,210.3
          40.983713,56.411823,205.1
          40.983928,56.411876,199.8
          40.983841,56.411950,192.0
          40.983833,56.412010,182.5
          40.983919,56.412046,179.8
          40.984044,56.412064,174.6
          40.983960,56.412118,171.7
          40.983979,56.412188,163.0
          40.984080,56.412211,157.8
          40.984187,56.412202,153.4
          40.984105,56.412246,149.5
          40.984100,56.412309,144.7
          40.984195,56.412344,140.7
          40.984301,56.412330,136.2
          40.984211,56.412363,131.3
          40.984203,56.412423,127.9
          40.984291,56.412458,122.7
          40.984394,56.412439,119.2
          40.984310,56.412489,114.7
          40.984297,56.412549,109.4
          40.984385,56.412586,106.3
          40.984488,56.412568,101.5
          40.984383,56.412582,98.2
          40.984371,56.412643,92.8
          40.984463,56.412675,90.2
          40.984548,56.412640,87.7
          40.984449,56.412681,81.9
          40.984412,56.412738,78.0
          40.984479,56.412785,76.0
          40.984548,56.412831,71.5
          40.984458,56.412864,65.8
          40.984376,56.412905,61.7
          40.984401,56.412963,56.5
          40.984323,56.413011,51.1
          40.984206,56.413009,44.8
          40.984152,56.413061,44.0
          40.984131,56.413120,36.1
          40.984076,56.413172,28.5
          40.984106,56.413230,24.2
          40.984031,56.413274,21.1
          40.983996,56.413274,14.3
          40.983969,56.413287,7.8
          40.983933,56.413288,2.3
          40.983905,56.413276,0.0
          40.983879,56.413263,0.0
          40.983851,56.413251,0.0
          40.983822,56.413239,0.0
          40.983794,56.413227,0.0
          40.983766,56.413215,0.0
          40.983737,56.413203,0.0
          40.983709,56.413191,0.0
          40.983680,56.413179,0.0
          40.983652,56.413167,0.0
          40.983623,56.413155,0.0
          40.983595,56.413143,0.0
          40.983566,56.413131,0.0
          40.983538,56.413119,0.0
          40.983509,56.413107,0.0
          40.983481,56.413096,0.0
          40.983452,56.413084,0.0
          40.983424,56.413072,0.0
          40.983395,56.413060,0.0
          40.983367,56.413048,0.0
          40.983338,56.413036,0.0
          40.983310,56.413024,0.0
          40.983281,56.413012,0.0
          40.983253,56.413000,0.0
          40.983224,56.412988,0.0
          40.983196,56.412977,0.0
          40.983167,56.412965,0.0
          40.983139,56.412953,0.0
        </coordinates>
      </LineString>
    </Placemark>
  </Document>
</kml>